{
  "type": "FeatureCollection",
  "features": [
    {
      "type": "Feature",
      "properties": {
        "norad_id": 24946,
        "name": "IRIDIUM 33",
        "group": "iridium-33-debris",
        "lat": -28.549940550282738,
        "lon": 67.40936619338564,
        "alt_km": 783.2991561608351,
        "timestamp": "2025-12-09T23:33:24.238747+00:00",
        "meta_object_name": "IRIDIUM 33",
        "meta_object_id": "1997-051C",
        "meta_epoch": "2025-12-09T06:57:17.894016",
        "meta_mean_motion": 14.35033739,
        "meta_eccentricity": 0.0006648,
        "meta_inclination": 86.387,
        "meta_ra_of_asc_node": 69.6697,
        "meta_arg_of_pericenter": 213.1217,
        "meta_mean_anomaly": 146.9564,
        "meta_ephemeris_type": 0,
        "meta_classification_type": "U",
        "meta_norad_cat_id": 24946,
        "meta_element_set_no": 999,
        "meta_rev_at_epoch": 47785,
        "meta_bstar": 0.00021762,
        "meta_mean_motion_dot": 6.39e-06,
        "meta_mean_motion_ddot": 0,
        "tle_line1": "1 24946U 97051C   25343.28979044  .00000639  00000+0  21762-3 0  9995",
        "tle_line2": "2 24946  86.3870  69.6697 0006648 213.1217 146.9564 14.35033739477857"
      },
      "geometry": {
        "type": "Point",
        "coordinates": [
          67.40936619338564,
          -28.549940550282738
        ]
      }
    },
    {
      "type": "Feature",
      "properties": {
        "norad_id": 33773,
        "name": "IRIDIUM 33 DEB",
        "group": "iridium-33-debris",
        "lat": -27.124623485573636,
        "lon": -116.39428810546335,
        "alt_km": 748.3585121855613,
        "timestamp": "2025-12-09T23:33:24.238784+00:00",
        "meta_object_name": "IRIDIUM 33 DEB",
        "meta_object_id": "1997-051L",
        "meta_epoch": "2025-12-09T10:57:11.199168",
        "meta_mean_motion": 14.43246661,
        "meta_eccentricity": 0.00121649,
        "meta_inclination": 86.4015,
        "meta_ra_of_asc_node": 61.9808,
        "meta_arg_of_pericenter": 156.1113,
        "meta_mean_anomaly": 204.0655,
        "meta_ephemeris_type": 0,
        "meta_classification_type": "U",
        "meta_norad_cat_id": 33773,
        "meta_element_set_no": 999,
        "meta_rev_at_epoch": 88300,
        "meta_bstar": 0.00055763751,
        "meta_mean_motion_dot": 1.897e-05,
        "meta_mean_motion_ddot": 0,
        "tle_line1": "1 33773U 97051L   25343.45637962  .00001897  00000+0  55764-3 0  9998",
        "tle_line2": "2 33773  86.4015  61.9808 0012164 156.1113 204.0655 14.43246661883001"
      },
      "geometry": {
        "type": "Point",
        "coordinates": [
          -116.39428810546335,
          -27.124623485573636
        ]
      }
    },
    {
      "type": "Feature",
      "properties": {
        "norad_id": 33775,
        "name": "IRIDIUM 33 DEB",
        "group": "iridium-33-debris",
        "lat": -51.64733931851468,
        "lon": 46.12176240392954,
        "alt_km": 768.8782417548546,
        "timestamp": "2025-12-09T23:33:24.238801+00:00",
        "meta_object_name": "IRIDIUM 33 DEB",
        "meta_object_id": "1997-051N",
        "meta_epoch": "2025-12-09T14:26:01.423104",
        "meta_mean_motion": 14.41458738,
        "meta_eccentricity": 0.00139444,
        "meta_inclination": 86.364,
        "meta_ra_of_asc_node": 50.8934,
        "meta_arg_of_pericenter": 164.314,
        "meta_mean_anomaly": 332.5697,
        "meta_ephemeris_type": 0,
        "meta_classification_type": "U",
        "meta_norad_cat_id": 33775,
        "meta_element_set_no": 999,
        "meta_rev_at_epoch": 88095,
        "meta_bstar": 0.00057547968,
        "meta_mean_motion_dot": 1.888e-05,
        "meta_mean_motion_ddot": 0,
        "tle_line1": "1 33775U 97051N   25343.60140536  .00001888  00000+0  57548-3 0  9995",
        "tle_line2": "2 33775  86.3640  50.8934 0013944 164.3140 332.5697 14.41458738880953"
      },
      "geometry": {
        "type": "Point",
        "coordinates": [
          46.12176240392954,
          -51.64733931851468
        ]
      }
    },
    {
      "type": "Feature",
      "properties": {
        "norad_id": 33776,
        "name": "IRIDIUM 33 DEB",
        "group": "iridium-33-debris",
        "lat": -30.017109010903585,
        "lon": -95.98368381504062,
        "alt_km": 760.5769508828553,
        "timestamp": "2025-12-09T23:33:24.238814+00:00",
        "meta_object_name": "IRIDIUM 33 DEB",
        "meta_object_id": "1997-051P",
        "meta_epoch": "2025-12-09T12:36:53.784000",
        "meta_mean_motion": 14.38227239,
        "meta_eccentricity": 0.00139576,
        "meta_inclination": 86.4038,
        "meta_ra_of_asc_node": 82.1255,
        "meta_arg_of_pericenter": 201.1241,
        "meta_mean_anomaly": 169.7991,
        "meta_ephemeris_type": 0,
        "meta_classification_type": "U",
        "meta_norad_cat_id": 33776,
        "meta_element_set_no": 999,
        "meta_rev_at_epoch": 88036,
        "meta_bstar": 0.00059846914,
        "meta_mean_motion_dot": 1.839e-05,
        "meta_mean_motion_ddot": 0,
        "tle_line1": "1 33776U 97051P   25343.52562250  .00001839  00000+0  59847-3 0  9998",
        "tle_line2": "2 33776  86.4038  82.1255 0013957 201.1241 169.7991 14.38227239880364"
      },
      "geometry": {
        "type": "Point",
        "coordinates": [
          -95.98368381504062,
          -30.017109010903585
        ]
      }
    },
    {
      "type": "Feature",
      "properties": {
        "norad_id": 33777,
        "name": "IRIDIUM 33 DEB",
        "group": "iridium-33-debris",
        "lat": -5.496342437798296,
        "lon": -143.24763930901167,
        "alt_km": 710.4594017456311,
        "timestamp": "2025-12-09T23:33:24.238826+00:00",
        "meta_object_name": "IRIDIUM 33 DEB",
        "meta_object_id": "1997-051Q",
        "meta_epoch": "2025-12-09T09:30:28.800288",
        "meta_mean_motion": 14.5557564,
        "meta_eccentricity": 0.00050654,
        "meta_inclination": 86.3783,
        "meta_ra_of_asc_node": 36.6577,
        "meta_arg_of_pericenter": 264.7925,
        "meta_mean_anomaly": 95.2705,
        "meta_ephemeris_type": 0,
        "meta_classification_type": "U",
        "meta_norad_cat_id": 33777,
        "meta_element_set_no": 999,
        "meta_rev_at_epoch": 88485,
        "meta_bstar": 0.0013749308,
        "meta_mean_motion_dot": 6.014e-05,
        "meta_mean_motion_ddot": 0,
        "tle_line1": "1 33777U 97051Q   25343.39616667  .00006014  00000+0  13749-2 0  9996",
        "tle_line2": "2 33777  86.3783  36.6577 0005065 264.7925  95.2705 14.55575640884852"
      },
      "geometry": {
        "type": "Point",
        "coordinates": [
          -143.24763930901167,
          -5.496342437798296
        ]
      }
    },
    {
      "type": "Feature",
      "properties": {
        "norad_id": 33850,
        "name": "IRIDIUM 33 DEB",
        "group": "iridium-33-debris",
        "lat": -77.01049584247362,
        "lon": 15.2649874610431,
        "alt_km": 762.1716309711219,
        "timestamp": "2025-12-09T23:33:24.238840+00:00",
        "meta_object_name": "IRIDIUM 33 DEB",
        "meta_object_id": "1997-051T",
        "meta_epoch": "2025-12-09T12:49:17.887584",
        "meta_mean_motion": 14.42137321,
        "meta_eccentricity": 0.0011876,
        "meta_inclination": 86.342,
        "meta_ra_of_asc_node": 31.558,
        "meta_arg_of_pericenter": 170.9459,
        "meta_mean_anomaly": 310.6825,
        "meta_ephemeris_type": 0,
        "meta_classification_type": "U",
        "meta_norad_cat_id": 33850,
        "meta_element_set_no": 999,
        "meta_rev_at_epoch": 88106,
        "meta_bstar": 0.00056175323,
        "meta_mean_motion_dot": 1.868e-05,
        "meta_mean_motion_ddot": 0,
        "tle_line1": "1 33850U 97051T   25343.53423481  .00001868  00000+0  56175-3 0  9997",
        "tle_line2": "2 33850  86.3420  31.5580 0011876 170.9459 310.6825 14.42137321881060"
      },
      "geometry": {
        "type": "Point",
        "coordinates": [
          15.2649874610431,
          -77.01049584247362
        ]
      }
    },
    {
      "type": "Feature",
      "properties": {
        "norad_id": 33853,
        "name": "IRIDIUM 33 DEB",
        "group": "iridium-33-debris",
        "lat": 14.3574088939459,
        "lon": -7.9529635701659505,
        "alt_km": 993.3170370958223,
        "timestamp": "2025-12-09T23:33:24.238853+00:00",
        "meta_object_name": "IRIDIUM 33 DEB",
        "meta_object_id": "1997-051W",
        "meta_epoch": "2025-12-09T12:13:24.016800",
        "meta_mean_motion": 13.99031995,
        "meta_eccentricity": 0.02069783,
        "meta_inclination": 85.9998,
        "meta_ra_of_asc_node": 351.2277,
        "meta_arg_of_pericenter": 245.8173,
        "meta_mean_anomaly": 269.932,
        "meta_ephemeris_type": 0,
        "meta_classification_type": "U",
        "meta_norad_cat_id": 33853,
        "meta_element_set_no": 999,
        "meta_rev_at_epoch": 85300,
        "meta_bstar": 0.0029960339,
        "meta_mean_motion_dot": 5.22e-05,
        "meta_mean_motion_ddot": 0,
        "tle_line1": "1 33853U 97051W   25343.50930575  .00005220  00000+0  29960-2 0  9991",
        "tle_line2": "2 33853  85.9998 351.2277 0206978 245.8173 269.9320 13.99031995853007"
      },
      "geometry": {
        "type": "Point",
        "coordinates": [
          -7.9529635701659505,
          14.3574088939459
        ]
      }
    }
  ]
}